H1 CPF 01  gfz 2021 06 20 00  6711 tandemx   
H2 1003001  6202 36605    2021 06 20 00 59 42 2021 06 25 00 00 42   120 1 1  0 0 0
H9
10 0 59386  49662.000000  0   -3181898.710  -5768324.909  -2025226.829
10 0 59386  49782.000000  0   -3181771.797  -5399424.568  -2869388.776
10 0 59386  49902.000000  0   -3118915.355  -4936969.554  -3663185.690
10 0 59386  50022.000000  0   -2992925.899  -4390211.788  -4392751.553
10 0 59386  50142.000000  0   -2804672.191  -3769851.424  -5045377.728
10 0 59386  50262.000000  0   -2556297.147  -3087819.447  -5609728.241
10 0 59386  50382.000000  0   -2251194.779  -2357041.977  -6076027.930
10 0 59386  50502.000000  0   -1893962.063  -1591191.534  -6436221.603
10 0 59386  50622.000000  0   -1490326.939   -804429.998  -6684101.657
10 0 59386  50742.000000  0   -1047055.619    -11148.872  -6815403.335
10 0 59386  50862.000000  0    -571840.475    774288.434  -6827869.303
10 0 59386  50982.000000  0     -73168.785   1537799.831  -6721284.277
10 0 59386  51102.000000  0     439824.100   2265830.052  -6497478.233
10 0 59386  51222.000000  0     957517.520   2945586.403  -6160300.748
10 0 59386  51342.000000  0    1469982.451   3565261.433  -5715561.830
10 0 59386  51462.000000  0    1967167.472   4114237.707  -5170941.081
10 0 59386  51582.000000  0    2439093.057   4583272.652  -4535867.068
10 0 59386  51702.000000  0    2876050.362   4964660.970  -3821365.092
10 0 59386  51822.000000  0    3268800.086   5252369.493  -3039874.805
10 0 59386  51942.000000  0    3608768.553   5442142.195  -2205040.500
10 0 59386  52062.000000  0    3888235.592   5531571.223  -1331475.383
10 0 59386  52182.000000  0    4100508.938   5520132.518   -434504.767
10 0 59386  52302.000000  0    4240080.790   5409183.907    470107.661
10 0 59386  52422.000000  0    4302762.426   5201924.391   1366444.216
10 0 59386  52542.000000  0    4285791.927   4903315.998   2238720.569
10 0 59386  52662.000000  0    4187915.439   4519973.008   3071572.368
10 0 59386  52782.000000  0    4009435.419   4060014.887   3850335.543
10 0 59386  52902.000000  0    3752226.621   3532890.983   4561308.598
10 0 59386  53022.000000  0    3419722.410   2949182.435   5191996.358
10 0 59386  53142.000000  0    3016866.003   2320384.099   5731331.644
10 0 59386  53262.000000  0    2550032.414   1658672.383   6169863.586
10 0 59386  53382.000000  0    2026924.416    976665.759   6499918.173
10 0 59386  53502.000000  0    1456441.699    287181.762   6715725.948
10 0 59386  53622.000000  0     848526.896   -397002.898   6813517.290
10 0 59386  53742.000000  0     213991.255  -1063388.949   6791585.580
10 0 59386  53862.000000  0    -435678.086  -1699983.128   6650314.768
10 0 59386  53982.000000  0   -1088526.107  -2295513.983   6392172.403
10 0 59386  54102.000000  0   -1732348.726  -2839631.404   6021667.539
10 0 59386  54222.000000  0   -2354918.429  -3323087.062   5545277.432
10 0 59386  54342.000000  0   -2944217.331  -3737895.453   4971342.502
10 0 59386  54462.000000  0   -3488673.643  -4077470.899   4309926.311
10 0 59386  54582.000000  0   -3977392.980  -4336736.468   3572642.282
10 0 59386  54702.000000  0   -4400379.773  -4512203.646   2772451.825
10 0 59386  54822.000000  0   -4748745.578  -4602021.435   1923436.937
10 0 59386  54942.000000  0   -5014899.453  -4605992.515   1040548.692
10 0 59386  55062.000000  0   -5192714.218  -4525555.017    139337.778
10 0 59386  55182.000000  0   -5277664.872  -4363730.992   -764327.395
10 0 59386  55302.000000  0   -5266935.268  -4125042.636  -1654549.607
10 0 59386  55422.000000  0   -5159489.274  -3815397.303  -2515692.097
10 0 59386  55542.000000  0   -4956104.691  -3441945.301  -3332659.485
10 0 59386  55662.000000  0   -4659371.092  -3012915.665  -4091165.066
10 0 59386  55782.000000  0   -4273652.383  -2537433.916  -4777980.156
10 0 59386  55902.000000  0   -3805014.596  -2025326.188  -5381160.667
10 0 59386  56022.000000  0   -3261122.031  -1486914.955  -5890247.203
10 0 59386  56142.000000  0   -2651104.751   -932810.516  -6296436.369
10 0 59386  56262.000000  0   -1985399.989   -373703.041  -6592721.820
10 0 59386  56382.000000  0   -1275570.397    179840.653  -6774003.083
10 0 59386  56502.000000  0    -534104.858    717571.565  -6837162.581
10 0 59386  56622.000000  0     225796.640   1229743.306  -6781113.554
10 0 59386  56742.000000  0     990451.254   1707283.502  -6606816.825
10 0 59386  56862.000000  0    1745934.093   2141951.152  -6317268.564
10 0 59386  56982.000000  0    2478326.749   2526477.305  -5917454.092
10 0 59386  57102.000000  0    3173970.180   2854686.522  -5414270.479
10 0 59386  57222.000000  0    3819716.555   3121596.936  -4816418.375
10 0 59386  57342.000000  0    4403179.502   3323499.126  -4134264.022
10 0 59386  57462.000000  0    4912976.601   3458010.344  -3379669.451
10 0 59386  57582.000000  0    5338957.531   3524102.504  -2565793.402
10 0 59386  57702.000000  0    5672413.566   3522104.543  -1706866.843
10 0 59386  57822.000000  0    5906263.757   3453676.632   -817944.279
10 0 59386  57942.000000  0    6035211.082   3321756.587     85362.998
10 0 59386  58062.000000  0    6055865.771   3130479.741    987166.883
10 0 59386  58182.000000  0    5966830.807   2885073.658   1871590.036
10 0 59386  58302.000000  0    5768746.830   2591731.506   2723053.927
10 0 59386  58422.000000  0    5464296.707   2257466.038   3526562.340
10 0 59386  58542.000000  0    5058167.216   1889947.684   4267972.702
10 0 59386  58662.000000  0    4556970.017   1497332.026   4934248.523
10 0 59386  58782.000000  0    3969127.534   1088080.664   5513688.277
10 0 59386  58902.000000  0    3304722.708    670779.995   5996131.266
10 0 59386  59022.000000  0    2575315.952    253961.774   6373129.862
10 0 59386  59142.000000  0    1793738.904   -154069.123   6638090.236
10 0 59386  59262.000000  0     973865.737   -545398.618   6786383.016
10 0 59386  59382.000000  0     130363.866   -912656.235   6815420.101
10 0 59386  59502.000000  0    -721569.235  -1249153.069   6724695.954
10 0 59386  59622.000000  0   -1566479.285  -1549003.669   6515795.070
10 0 59386  59742.000000  0   -2388934.036  -1807228.766   6192364.676
10 0 59386  59862.000000  0   -3173803.109  -2019837.350   5760056.140
10 0 59386  59982.000000  0   -3906539.397  -2183889.588   5226434.740
10 0 59386  60102.000000  0   -4573454.226  -2297537.969   4600852.280
10 0 59386  60222.000000  0   -5161979.398  -2360044.921   3894287.300
10 0 59386  60342.000000  0   -5660911.017  -2371776.040   3119155.157
10 0 59386  60462.000000  0   -6060630.821  -2334170.057   2289091.717
10 0 59386  60582.000000  0   -6353301.071  -2249687.096   1418712.583
10 0 59386  60702.000000  0   -6533026.378  -2121734.378    523349.180
10 0 59386  60822.000000  0   -6595975.537  -1954570.881   -381228.894
10 0 59386  60942.000000  0   -6540463.779  -1753194.003  -1279100.755
10 0 59386  61062.000000  0   -6366990.041  -1523211.317  -2154483.806
10 0 59386  61182.000000  0   -6078230.129  -1270701.086  -2992018.306
10 0 59386  61302.000000  0   -5678986.768  -1002065.195  -3777041.398
10 0 59386  61422.000000  0   -5176098.575   -723877.793  -4495845.211
10 0 59386  61542.000000  0   -4578310.601   -442733.377  -5135913.977
10 0 59386  61662.000000  0   -3896109.862   -165098.693  -5686136.000
10 0 59386  61782.000000  0   -3141530.439    102828.547  -6136987.031
10 0 59386  61902.000000  0   -2327934.175    355251.178  -6480682.843
10 0 59386  62022.000000  0   -1469771.447    586891.195  -6711302.020
10 0 59386  62142.000000  0    -582325.143    793094.251  -6824877.544
10 0 59386  62262.000000  0     318556.666    969919.480  -6819456.319
10 0 59386  62382.000000  0    1216735.475   1114211.530  -6695129.473
10 0 59386  62502.000000  0    2096065.164   1223655.522  -6454033.583
10 0 59386  62622.000000  0    2940676.683   1296814.155  -6100317.832
10 0 59386  62742.000000  0    3735260.256   1333145.457  -5640079.125
10 0 59386  62862.000000  0    4465340.008   1333001.154  -5081267.185
10 0 59386  62982.000000  0    5117540.126   1297606.142  -4433559.603
10 0 59386  63102.000000  0    5679836.138   1229019.007  -3708204.614
10 0 59386  63222.000000  0    6141785.127   1130073.761  -2917834.777
10 0 59386  63342.000000  0    6494731.065   1004303.872  -2076253.885
10 0 59386  63462.000000  0    6731980.234    855850.404  -1198198.168
10 0 59386  63582.000000  0    6848939.883    689355.266   -299076.069
10 0 59386  63702.000000  0    6843215.799    509842.883    605307.215
10 0 59386  63822.000000  0    6714667.553    322593.456   1499034.083
10 0 59386  63942.000000  0    6465419.298    133009.275   2366363.827
10 0 59386  64062.000000  0    6099822.979    -53520.660   3192019.438
10 0 59386  64182.000000  0    5624376.924   -231755.550   3961464.120
10 0 59386  64302.000000  0    5047601.785   -396731.747   4661161.346
10 0 59386  64422.000000  0    4379879.433   -543884.610   5278816.049
10 0 59386  64542.000000  0    3633254.301   -669159.775   5803589.868
10 0 59386  64662.000000  0    2821206.971   -769110.081   6226286.947
10 0 59386  64782.000000  0    1958403.679   -840977.752   6539509.702
10 0 59386  64902.000000  0    1060427.076   -882759.866   6737783.248
10 0 59386  65022.000000  0     143490.802   -893256.019   6817645.904
10 0 59386  65142.000000  0    -775854.187   -872096.924   6777704.517
10 0 59386  65262.000000  0   -1681017.317   -819754.242   6618656.409
10 0 59386  65382.000000  0   -2555666.320   -737530.521   6343277.552
10 0 59386  65502.000000  0   -3384020.706   -627529.934   5956377.858
10 0 59386  65622.000000  0   -4151138.532   -492610.133   5464723.674
10 0 59386  65742.000000  0   -4843191.262   -336316.574   4876925.984
10 0 59386  65862.000000  0   -5447720.345   -162799.878   4203294.570
10 0 59386  65982.000000  0   -5953870.129     23282.028   3455660.661
10 0 59386  66102.000000  0   -6352591.787    216875.191   2647171.332
99
